{"type": "FeatureCollection", "features": [{"type": "Feature", "properties": {"norad_id": 66514, "name": "SENTINEL-6B", "group": "last-30-days", "lat": 37.43829982392524, "lon": 175.227078427002, "alt_km": 1335.9901253333983, "timestamp": "2025-12-16T03:53:25.814936+00:00", "meta": {"OBJECT_NAME": "SENTINEL-6B", "OBJECT_ID": "2025-264A", "EPOCH": "2025-12-12T06:01:21.430272", "MEAN_MOTION": 12.81479576, "ECCENTRICITY": 0.0007847, "INCLINATION": 66.0385, "RA_OF_ASC_NODE": 163.4531, "ARG_OF_PERICENTER": 270.1745, "MEAN_ANOMALY": 89.8371, "EPHEMERIS_TYPE": 0, "CLASSIFICATION_TYPE": "U", "NORAD_CAT_ID": 66514, "ELEMENT_SET_NO": 999, "REV_AT_EPOCH": 322, "BSTAR": 0.00018864317, "MEAN_MOTION_DOT": -1.7e-07, "MEAN_MOTION_DDOT": 0}, "tle": {"line1": "1 66514U 25264A   25346.25094248 -.00000017  00000+0  18864-3 0  9993", "line2": "2 66514  66.0385 163.4531 0007847 270.1745  89.8371 12.81479576  3220"}}, "geometry": {"type": "Point", "coordinates": [175.227078427002, 37.43829982392524]}}, {"type": "Feature", "properties": {"norad_id": 66516, "name": "STARLINK-35924", "group": "last-30-days", "lat": 15.12291045445736, "lon": 51.2567426040408, "alt_km": 442.0776824905024, "timestamp": "2025-12-16T03:53:25.814991+00:00", "meta": {"OBJECT_NAME": "STARLINK-35924", "OBJECT_ID": "2025-265A", "EPOCH": "2025-12-15T08:00:01.999872", "MEAN_MOTION": 15.40681971, "ECCENTRICITY": 0.00015364, "INCLINATION": 43.0005, "RA_OF_ASC_NODE": 39.1751, "ARG_OF_PERICENTER": 261.6608, "MEAN_ANOMALY": 198.7898, "EPHEMERIS_TYPE": 0, "CLASSIFICATION_TYPE": "U", "NORAD_CAT_ID": 66516, "ELEMENT_SET_NO": 999, "REV_AT_EPOCH": 539, "BSTAR": 0.00034081959, "MEAN_MOTION_DOT": 0.00013951, "MEAN_MOTION_DDOT": 0}, "tle": {"line1": "1 66516U 25265A   25349.33335648  .00013951  00000+0  34082-3 0  9990", "line2": "2 66516  43.0005  39.1751 0001536 261.6608 198.7898 15.40681971  5397"}}, "geometry": {"type": "Point", "coordinates": [51.2567426040408, 15.12291045445736]}}, {"type": "Feature", "properties": {"norad_id": 66517, "name": "STARLINK-35937", "group": "last-30-days", "lat": -4.0351114814829545, "lon": -141.65731226453767, "alt_km": 415.14435654356294, "timestamp": "2025-12-16T03:53:25.815009+00:00", "meta": {"OBJECT_NAME": "STARLINK-35937", "OBJECT_ID": "2025-265B", "EPOCH": "2025-12-15T03:54:17.613504", "MEAN_MOTION": 15.50622201, "ECCENTRICITY": 0.00015724, "INCLINATION": 42.9993, "RA_OF_ASC_NODE": 39.8491, "ARG_OF_PERICENTER": 285.2021, "MEAN_ANOMALY": 74.8665, "EPHEMERIS_TYPE": 0, "CLASSIFICATION_TYPE": "U", "NORAD_CAT_ID": 66517, "ELEMENT_SET_NO": 999, "REV_AT_EPOCH": 413, "BSTAR": 0.00097533791, "MEAN_MOTION_DOT": 0.00057386, "MEAN_MOTION_DDOT": 0}, "tle": {"line1": "1 66517U 25265B   25349.16270386  .00057386  00000+0  97534-3 0  9990", "line2": "2 66517  42.9993  39.8491 0001572 285.2021  74.8665 15.50622201  4130"}}, "geometry": {"type": "Point", "coordinates": [-141.65731226453767, -4.0351114814829545]}}, {"type": "Feature", "properties": {"norad_id": 66518, "name": "STARLINK-35962", "group": "last-30-days", "lat": -4.690511139371207, "lon": -140.95314284337138, "alt_km": 414.7043637963643, "timestamp": "2025-12-16T03:53:25.815022+00:00", "meta": {"OBJECT_NAME": "STARLINK-35962", "OBJECT_ID": "2025-265C", "EPOCH": "2025-12-14T10:53:57.808320", "MEAN_MOTION": 15.50609594, "ECCENTRICITY": 0.00017695, "INCLINATION": 43.0014, "RA_OF_ASC_NODE": 43.9914, "ARG_OF_PERICENTER": 290.7607, "MEAN_ANOMALY": 69.3063, "EPHEMERIS_TYPE": 0, "CLASSIFICATION_TYPE": "U", "NORAD_CAT_ID": 66518, "ELEMENT_SET_NO": 999, "REV_AT_EPOCH": 402, "BSTAR": 0.0018445082, "MEAN_MOTION_DOT": 0.00109513, "MEAN_MOTION_DDOT": 0}, "tle": {"line1": "1 66518U 25265C   25348.45414130  .00109513  00000+0  18445-2 0  9992", "line2": "2 66518  43.0014  43.9914 0001769 290.7607  69.3063 15.50609594  4021"}}, "geometry": {"type": "Point", "coordinates": [-140.95314284337138, -4.690511139371207]}}, {"type": "Feature", "properties": {"norad_id": 66519, "name": "STARLINK-35931", "group": "last-30-days", "lat": -6.824908332433674, "lon": -138.6340483756591, "alt_km": 415.549433845169, "timestamp": "2025-12-16T03:53:25.815034+00:00", "meta": {"OBJECT_NAME": "STARLINK-35931", "OBJECT_ID": "2025-265D", "EPOCH": "2025-12-14T10:52:58.169856", "MEAN_MOTION": 15.50575413, "ECCENTRICITY": 0.00026869, "INCLINATION": 43.0006, "RA_OF_ASC_NODE": 43.985, "ARG_OF_PERICENTER": 285.698, "MEAN_ANOMALY": 74.3584, "EPHEMERIS_TYPE": 0, "CLASSIFICATION_TYPE": "U", "NORAD_CAT_ID": 66519, "ELEMENT_SET_NO": 999, "REV_AT_EPOCH": 402, "BSTAR": 0.0010807878, "MEAN_MOTION_DOT": 0.00063576, "MEAN_MOTION_DDOT": 0}, "tle": {"line1": "1 66519U 25265D   25348.45345104  .00063576  00000+0  10808-2 0  9990", "line2": "2 66519  43.0006  43.9850 0002686 285.6980  74.3584 15.50575413  4024"}}, "geometry": {"type": "Point", "coordinates": [-138.6340483756591, -6.824908332433674]}}, {"type": "Feature", "properties": {"norad_id": 66520, "name": "STARLINK-35952", "group": "last-30-days", "lat": 40.50950951249929, "lon": 100.74484922716039, "alt_km": 438.1069268168885, "timestamp": "2025-12-16T03:53:25.815047+00:00", "meta": {"OBJECT_NAME": "STARLINK-35952", "OBJECT_ID": "2025-265E", "EPOCH": "2025-12-15T08:00:01.999872", "MEAN_MOTION": 15.40702875, "ECCENTRICITY": 9.313e-05, "INCLINATION": 43.0002, "RA_OF_ASC_NODE": 39.0532, "ARG_OF_PERICENTER": 282.2485, "MEAN_ANOMALY": 227.9599, "EPHEMERIS_TYPE": 0, "CLASSIFICATION_TYPE": "U", "NORAD_CAT_ID": 66520, "ELEMENT_SET_NO": 999, "REV_AT_EPOCH": 541, "BSTAR": 9.550252e-06, "MEAN_MOTION_DOT": 9.6e-07, "MEAN_MOTION_DDOT": 0}, "tle": {"line1": "1 66520U 25265E   25349.33335648  .00000096  00000+0  95503-5 0  9998", "line2": "2 66520  43.0002  39.0532 0000931 282.2485 227.9599 15.40702875  5418"}}, "geometry": {"type": "Point", "coordinates": [100.74484922716039, 40.50950951249929]}}, {"type": "Feature", "properties": {"norad_id": 66521, "name": "STARLINK-35915", "group": "last-30-days", "lat": -9.846284477604415, "lon": -135.2893366816139, "alt_km": 414.3551580826588, "timestamp": "2025-12-16T03:53:25.815059+00:00", "meta": {"OBJECT_NAME": "STARLINK-35915", "OBJECT_ID": "2025-265F", "EPOCH": "2025-12-14T04:40:58.207296", "MEAN_MOTION": 15.50527356, "ECCENTRICITY": 0.0002411, "INCLINATION": 42.9978, "RA_OF_ASC_NODE": 45.4873, "ARG_OF_PERICENTER": 258.1159, "MEAN_ANOMALY": 101.9431, "EPHEMERIS_TYPE": 0, "CLASSIFICATION_TYPE": "U", "NORAD_CAT_ID": 66521, "ELEMENT_SET_NO": 999, "REV_AT_EPOCH": 398, "BSTAR": 0.0021069432, "MEAN_MOTION_DOT": 0.0012503, "MEAN_MOTION_DDOT": 0}, "tle": {"line1": "1 66521U 25265F   25348.19511814  .00125030  00000+0  21069-2 0  9992", "line2": "2 66521  42.9978  45.4873 0002411 258.1159 101.9431 15.50527356  3989"}}, "geometry": {"type": "Point", "coordinates": [-135.2893366816139, -9.846284477604415]}}, {"type": "Feature", "properties": {"norad_id": 66522, "name": "STARLINK-35946", "group": "last-30-days", "lat": -10.537700847489912, "lon": -134.5101347461698, "alt_km": 415.3964158145318, "timestamp": "2025-12-16T03:53:25.815071+00:00", "meta": {"OBJECT_NAME": "STARLINK-35946", "OBJECT_ID": "2025-265G", "EPOCH": "2025-12-15T03:51:49.411584", "MEAN_MOTION": 15.50620005, "ECCENTRICITY": 0.00025386, "INCLINATION": 43.0023, "RA_OF_ASC_NODE": 39.8338, "ARG_OF_PERICENTER": 276.134, "MEAN_ANOMALY": 83.9231, "EPHEMERIS_TYPE": 0, "CLASSIFICATION_TYPE": "U", "NORAD_CAT_ID": 66522, "ELEMENT_SET_NO": 999, "REV_AT_EPOCH": 413, "BSTAR": 0.0013592146, "MEAN_MOTION_DOT": 0.00080341, "MEAN_MOTION_DDOT": 0}, "tle": {"line1": "1 66522U 25265G   25349.16098856  .00080341  00000+0  13592-2 0  9994", "line2": "2 66522  43.0023  39.8338 0002538 276.1340  83.9231 15.50620005  4138"}}, "geometry": {"type": "Point", "coordinates": [-134.5101347461698, -10.537700847489912]}}, {"type": "Feature", "properties": {"norad_id": 66523, "name": "STARLINK-35969", "group": "last-30-days", "lat": -11.755091426370097, "lon": -133.12458421496513, "alt_km": 416.5165317792498, "timestamp": "2025-12-16T03:53:25.815081+00:00", "meta": {"OBJECT_NAME": "STARLINK-35969", "OBJECT_ID": "2025-265H", "EPOCH": "2025-12-15T03:51:19.602720", "MEAN_MOTION": 15.50616312, "ECCENTRICITY": 0.00035212, "INCLINATION": 42.9978, "RA_OF_ASC_NODE": 39.831, "ARG_OF_PERICENTER": 299.9659, "MEAN_ANOMALY": 60.0851, "EPHEMERIS_TYPE": 0, "CLASSIFICATION_TYPE": "U", "NORAD_CAT_ID": 66523, "ELEMENT_SET_NO": 999, "REV_AT_EPOCH": 413, "BSTAR": 0.0010201167, "MEAN_MOTION_DOT": 0.00060054, "MEAN_MOTION_DDOT": 0}, "tle": {"line1": "1 66523U 25265H   25349.16064355  .00060054  00000+0  10201-2 0  9995", "line2": "2 66523  42.9978  39.8310 0003521 299.9659  60.0851 15.50616312  4135"}}, "geometry": {"type": "Point", "coordinates": [-133.12458421496513, -11.755091426370097]}}, {"type": "Feature", "properties": {"norad_id": 66524, "name": "STARLINK-35687", "group": "last-30-days", "lat": 30.123750969249386, "lon": 72.84626264167463, "alt_km": 439.9513114420479, "timestamp": "2025-12-16T03:53:25.815093+00:00", "meta": {"OBJECT_NAME": "STARLINK-35687", "OBJECT_ID": "2025-265J", "EPOCH": "2025-12-15T08:00:01.999872", "MEAN_MOTION": 15.40697911, "ECCENTRICITY": 0.0001467, "INCLINATION": 43.0005, "RA_OF_ASC_NODE": 39.1128, "ARG_OF_PERICENTER": 268.2383, "MEAN_ANOMALY": 217.0869, "EPHEMERIS_TYPE": 0, "CLASSIFICATION_TYPE": "U", "NORAD_CAT_ID": 66524, "ELEMENT_SET_NO": 999, "REV_AT_EPOCH": 541, "BSTAR": -4.43185e-06, "MEAN_MOTION_DOT": -4.89e-06, "MEAN_MOTION_DDOT": 0}, "tle": {"line1": "1 66524U 25265J   25349.33335648 -.00000489  00000+0 -44318-5 0  9998", "line2": "2 66524  43.0005  39.1128 0001467 268.2383 217.0869 15.40697911  5417"}}, "geometry": {"type": "Point", "coordinates": [72.84626264167463, 30.123750969249386]}}]}